start=new Date('2022-12-23T00:00:00.000Z').valueOf();
sats=[{"MEAN_MOTION_DDOT":"0.0000000000000","INCLINATION":"53.0555","MEAN_MOTION":"15.06382732","GP_ID":"221234754","DECAY_DATE":null,"MEAN_ELEMENT_THEORY":"SGP4","TLE_LINE1":"1 47749U 21017AD  22356.86165171  .00004774  00000-0  33934-3 0  9992","RCS_SIZE":"LARGE","CENTER_NAME":"EARTH","PERIAPSIS":"545.826","RA_OF_ASC_NODE":"66.6560","EPHEMERIS_TYPE":"0","MEAN_MOTION_DOT":"0.00004774","NORAD_CAT_ID":"47749","FILE":"3719655","SEMIMAJOR_AXIS":"6925.401","REV_AT_EPOCH":"10109","LAUNCH_DATE":"2021-03-04","ARG_OF_PERICENTER":"42.3918","APOAPSIS":"548.707","ECCENTRICITY":"0.00020800","COUNTRY_CODE":"US","PERIOD":"95.593","TLE_LINE2":"2 47749  53.0555  66.6560 0002080  42.3918 317.7231 15.06382732101094","OBJECT_TYPE":"PAYLOAD","SITE":"AFETR","ELEMENT_SET_NO":"999","REF_FRAME":"TEME","OBJECT_ID":"2021-017AD","BSTAR":"0.00033934000000","EPOCH":"2022-12-22T20:40:46.707744","MEAN_ANOMALY":"317.7231","CLASSIFICATION_TYPE":"U","TIME_SYSTEM":"UTC","OBJECT_NAME":"STARLINK-2163"},{"CLASSIFICATION_TYPE":"U","TIME_SYSTEM":"UTC","OBJECT_NAME":"STARLINK-2164","MEAN_ANOMALY":"328.0631","EPOCH":"2022-12-22T16:57:50.329728","BSTAR":"0.00015081000000","OBJECT_ID":"2021-017AE","ELEMENT_SET_NO":"999","REF_FRAME":"TEME","SITE":"AFETR","OBJECT_TYPE":"PAYLOAD","TLE_LINE2":"2 47750  53.0554  67.3360 0002418  32.0504 328.0631 15.06391645101073","PERIOD":"95.593","COUNTRY_CODE":"US","ECCENTRICITY":"0.00024180","APOAPSIS":"548.914","ARG_OF_PERICENTER":"32.0504","LAUNCH_DATE":"2021-03-04","REV_AT_EPOCH":"10107","SEMIMAJOR_AXIS":"6925.374","FILE":"3719655","NORAD_CAT_ID":"47750","MEAN_MOTION_DOT":"0.00001965","EPHEMERIS_TYPE":"0","RA_OF_ASC_NODE":"67.3360","CENTER_NAME":"EARTH","PERIAPSIS":"545.565","RCS_SIZE":"LARGE","TLE_LINE1":"1 47750U 21017AE  22356.70683252  .00001965  00000-0  15081-3 0  9994","MEAN_MOTION":"15.06391645","GP_ID":"221235006","DECAY_DATE":null,"MEAN_ELEMENT_THEORY":"SGP4","INCLINATION":"53.0554","MEAN_MOTION_DDOT":"0.0000000000000"},{"OBJECT_TYPE":"PAYLOAD","SITE":"AFETR","TLE_LINE2":"2 47751  53.0550  58.4131 0002284  30.4259 329.6862 15.06388098101180","PERIOD":"95.593","EPOCH":"2022-12-22T11:19:28.303968","OBJECT_NAME":"STARLINK-2168","CLASSIFICATION_TYPE":"U","TIME_SYSTEM":"UTC","MEAN_ANOMALY":"329.6862","OBJECT_ID":"2021-017AF","ELEMENT_SET_NO":"999","REF_FRAME":"TEME","BSTAR":"0.00063456000000","RA_OF_ASC_NODE":"58.4131","CENTER_NAME":"EARTH","PERIAPSIS":"545.668","RCS_SIZE":"LARGE","EPHEMERIS_TYPE":"0","MEAN_MOTION_DDOT":"0.0000000000000","TLE_LINE1":"1 47751U 21017AF  22356.47185537  .00009180  00000-0  63456-3 0  9998","MEAN_ELEMENT_THEORY":"SGP4","GP_ID":"221199377","DECAY_DATE":null,"MEAN_MOTION":"15.06388098","INCLINATION":"53.0550","APOAPSIS":"548.832","ARG_OF_PERICENTER":"30.4259","COUNTRY_CODE":"US","ECCENTRICITY":"0.00022840","LAUNCH_DATE":"2021-03-04","REV_AT_EPOCH":"10118","FILE":"3719197","SEMIMAJOR_AXIS":"6925.385","MEAN_MOTION_DOT":"0.00009180","NORAD_CAT_ID":"47751"},{"MEAN_MOTION_DOT":"-0.00000173","NORAD_CAT_ID":"47752","FILE":"3719499","SEMIMAJOR_AXIS":"6925.334","REV_AT_EPOCH":"10034","LAUNCH_DATE":"2021-03-04","ECCENTRICITY":"0.00017760","COUNTRY_CODE":"US","ARG_OF_PERICENTER":"50.7892","APOAPSIS":"548.429","INCLINATION":"53.0557","GP_ID":"221209565","DECAY_DATE":null,"MEAN_ELEMENT_THEORY":"SGP4","MEAN_MOTION":"15.06404709","TLE_LINE1":"1 47752U 21017AG  22356.50547688 -.00000173  00000-0  73174-5 0  9996","MEAN_MOTION_DDOT":"0.0000000000000","EPHEMERIS_TYPE":"0","RCS_SIZE":"LARGE","PERIAPSIS":"545.969","CENTER_NAME":"EARTH","RA_OF_ASC_NODE":"73.2517","BSTAR":"0.00000731740000","ELEMENT_SET_NO":"999","REF_FRAME":"TEME","OBJECT_ID":"2021-017AG","MEAN_ANOMALY":"309.3255","CLASSIFICATION_TYPE":"U","OBJECT_NAME":"STARLINK-2169","TIME_SYSTEM":"UTC","EPOCH":"2022-12-22T12:07:53.202432","PERIOD":"95.592","TLE_LINE2":"2 47752  53.0557  73.2517 0001776  50.7892 309.3255 15.06404709100340","SITE":"AFETR","OBJECT_TYPE":"PAYLOAD"},{"PERIOD":"95.593","TLE_LINE2":"2 47753  53.0553  78.0742 0002142  41.4028 318.7123 15.06389100100958","OBJECT_TYPE":"PAYLOAD","SITE":"AFETR","ELEMENT_SET_NO":"999","REF_FRAME":"TEME","OBJECT_ID":"2021-017AH","BSTAR":"0.00010731000000","EPOCH":"2022-12-22T13:08:16.440000","MEAN_ANOMALY":"318.7123","TIME_SYSTEM":"UTC","CLASSIFICATION_TYPE":"U","OBJECT_NAME":"STARLINK-2170","MEAN_MOTION_DDOT":"0.0000000000000","INCLINATION":"53.0553","MEAN_MOTION":"15.06389100","GP_ID":"221234255","DECAY_DATE":null,"MEAN_ELEMENT_THEORY":"SGP4","TLE_LINE1":"1 47753U 21017AH  22356.54741250  .00001317  00000-0  10731-3 0  9990","RCS_SIZE":"LARGE","CENTER_NAME":"EARTH","PERIAPSIS":"545.764","RA_OF_ASC_NODE":"78.0742","EPHEMERIS_TYPE":"0","NORAD_CAT_ID":"47753","MEAN_MOTION_DOT":"0.00001317","SEMIMAJOR_AXIS":"6925.382","FILE":"3719655","REV_AT_EPOCH":"10095","LAUNCH_DATE":"2021-03-04","ARG_OF_PERICENTER":"41.4028","APOAPSIS":"548.730","ECCENTRICITY":"0.00021420","COUNTRY_CODE":"US"},{"MEAN_ANOMALY":"326.8624","CLASSIFICATION_TYPE":"U","OBJECT_NAME":"STARLINK-2171","TIME_SYSTEM":"UTC","EPOCH":"2022-12-22T17:12:26.140608","BSTAR":"-0.00014616000000","ELEMENT_SET_NO":"999","REF_FRAME":"TEME","OBJECT_ID":"2021-017AJ","SITE":"AFETR","OBJECT_TYPE":"PAYLOAD","PERIOD":"95.593","TLE_LINE2":"2 47754  53.0541  77.2958 0002111  33.2497 326.8624 15.06383557100946","ECCENTRICITY":"0.00021110","COUNTRY_CODE":"US","APOAPSIS":"548.726","ARG_OF_PERICENTER":"33.2497","FILE":"3719655","SEMIMAJOR_AXIS":"6925.399","NORAD_CAT_ID":"47754","MEAN_MOTION_DOT":"-0.00002457","LAUNCH_DATE":"2021-03-04","REV_AT_EPOCH":"10094","EPHEMERIS_TYPE":"0","CENTER_NAME":"EARTH","PERIAPSIS":"545.802","RCS_SIZE":"LARGE","RA_OF_ASC_NODE":"77.2958","DECAY_DATE":null,"GP_ID":"221235506","MEAN_ELEMENT_THEORY":"SGP4","MEAN_MOTION":"15.06383557","INCLINATION":"53.0541","TLE_LINE1":"1 47754U 21017AJ  22356.71696922 -.00002457  00000-0 -14616-3 0  9999","MEAN_MOTION_DDOT":"0.0000000000000"},{"BSTAR":"0.00003211600000","OBJECT_ID":"2021-017AL","ELEMENT_SET_NO":"999","REF_FRAME":"TEME","TIME_SYSTEM":"UTC","CLASSIFICATION_TYPE":"U","OBJECT_NAME":"STARLINK-2174","MEAN_ANOMALY":"311.5743","EPOCH":"2022-12-22T17:07:06.872736","TLE_LINE2":"2 47756  53.0559  77.3303 0001976  48.5415 311.5743 15.06400664100985","PERIOD":"95.592","SITE":"AFETR","OBJECT_TYPE":"PAYLOAD","REV_AT_EPOCH":"10098","LAUNCH_DATE":"2021-03-04","MEAN_MOTION_DOT":"0.00000197","NORAD_CAT_ID":"47756","SEMIMAJOR_AXIS":"6925.347","FILE":"3719655","COUNTRY_CODE":"US","ECCENTRICITY":"0.00019760","ARG_OF_PERICENTER":"48.5415","APOAPSIS":"548.580","TLE_LINE1":"1 47756U 21017AL  22356.71327399  .00000197  00000-0  32116-4 0  9993","INCLINATION":"53.0559","GP_ID":"221235757","MEAN_ELEMENT_THEORY":"SGP4","DECAY_DATE":null,"MEAN_MOTION":"15.06400664","MEAN_MOTION_DDOT":"0.0000000000000","EPHEMERIS_TYPE":"0","RA_OF_ASC_NODE":"77.3303","RCS_SIZE":"LARGE","CENTER_NAME":"EARTH","PERIAPSIS":"545.843"},{"TLE_LINE1":"1 47757U 21017AM  22356.69853896  .00013796  00000-0  94324-3 0  9994","INCLINATION":"53.0536","GP_ID":"221234505","DECAY_DATE":null,"MEAN_ELEMENT_THEORY":"SGP4","MEAN_MOTION":"15.06401455","MEAN_MOTION_DDOT":"0.0000000000000","EPHEMERIS_TYPE":"0","RA_OF_ASC_NODE":"77.3706","RCS_SIZE":"LARGE","CENTER_NAME":"EARTH","PERIAPSIS":"545.851","REV_AT_EPOCH":"10092","LAUNCH_DATE":"2021-03-04","MEAN_MOTION_DOT":"0.00013796","NORAD_CAT_ID":"47757","SEMIMAJOR_AXIS":"6925.344","FILE":"3719655","COUNTRY_CODE":"US","ECCENTRICITY":"0.00019610","ARG_OF_PERICENTER":"45.3511","APOAPSIS":"548.567","TLE_LINE2":"2 47757  53.0536  77.3706 0001961  45.3511 314.7638 15.06401455100925","PERIOD":"95.592","SITE":"AFETR","OBJECT_TYPE":"PAYLOAD","BSTAR":"0.00094324000000","OBJECT_ID":"2021-017AM","ELEMENT_SET_NO":"999","REF_FRAME":"TEME","TIME_SYSTEM":"UTC","CLASSIFICATION_TYPE":"U","OBJECT_NAME":"STARLINK-2175","MEAN_ANOMALY":"314.7638","EPOCH":"2022-12-22T16:45:53.766144"},{"TLE_LINE2":"2 47760  53.0544  87.5401 0002044  45.0231 315.0923 15.06394457100814","PERIOD":"95.592","SITE":"AFETR","OBJECT_TYPE":"PAYLOAD","BSTAR":"0.00025680000000","OBJECT_ID":"2021-017AQ","ELEMENT_SET_NO":"999","REF_FRAME":"TEME","CLASSIFICATION_TYPE":"U","TIME_SYSTEM":"UTC","OBJECT_NAME":"STARLINK-2178","MEAN_ANOMALY":"315.0923","EPOCH":"2022-12-22T15:56:47.801760","TLE_LINE1":"1 47760U 21017AQ  22356.66444215  .00003545  00000-0  25680-3 0  9996","INCLINATION":"53.0544","DECAY_DATE":null,"GP_ID":"221234755","MEAN_MOTION":"15.06394457","MEAN_ELEMENT_THEORY":"SGP4","MEAN_MOTION_DDOT":"0.0000000000000","EPHEMERIS_TYPE":"0","RA_OF_ASC_NODE":"87.5401","RCS_SIZE":"LARGE","CENTER_NAME":"EARTH","PERIAPSIS":"545.815","REV_AT_EPOCH":"10081","LAUNCH_DATE":"2021-03-04","MEAN_MOTION_DOT":"0.00003545","NORAD_CAT_ID":"47760","SEMIMAJOR_AXIS":"6925.366","FILE":"3719655","COUNTRY_CODE":"US","ECCENTRICITY":"0.00020440","ARG_OF_PERICENTER":"45.0231","APOAPSIS":"548.646"},{"SITE":"AFETR","OBJECT_TYPE":"PAYLOAD","TLE_LINE2":"2 47761  53.0561  77.1040 0001423  67.4808 292.6331 15.06402553100940","PERIOD":"95.592","CLASSIFICATION_TYPE":"U","TIME_SYSTEM":"UTC","OBJECT_NAME":"STARLINK-2179","MEAN_ANOMALY":"292.6331","EPOCH":"2022-12-22T18:16:06.990528","BSTAR":"-0.00002700800000","OBJECT_ID":"2021-017AR","REF_FRAME":"TEME","ELEMENT_SET_NO":"999","EPHEMERIS_TYPE":"0","RA_OF_ASC_NODE":"77.1040","CENTER_NAME":"EARTH","PERIAPSIS":"546.220","RCS_SIZE":"LARGE","TLE_LINE1":"1 47761U 21017AR  22356.76119202 -.00000684  00000-0 -27008-4 0  9993","GP_ID":"221235007","DECAY_DATE":null,"MEAN_MOTION":"15.06402553","MEAN_ELEMENT_THEORY":"SGP4","INCLINATION":"53.0561","MEAN_MOTION_DDOT":"0.0000000000000","COUNTRY_CODE":"US","ECCENTRICITY":"0.00014230","APOAPSIS":"548.191","ARG_OF_PERICENTER":"67.4808","LAUNCH_DATE":"2021-03-04","REV_AT_EPOCH":"10094","SEMIMAJOR_AXIS":"6925.341","FILE":"3719655","NORAD_CAT_ID":"47761","MEAN_MOTION_DOT":"-0.00000684"}];
